ONEWEB-0271             
1 48989U 21060Y   25041.85048750  .00000189  00000+0  46069-3 0  9991
2 48989  87.9129 326.6847 0001908  88.8417 271.2933 13.16598399176304
ONEWEB-0272             
1 48990U 21060Z   25041.49267377  .00000095  00000+0  21489-3 0  9996
2 48990  87.9133 326.7872 0001856  87.1128 273.0215 13.16592422174912
ONEWEB-0273             
1 48991U 21060AA  25041.51485084 -.00000006  00000+0 -50459-4 0  9991
2 48991  87.9130 326.7679 0001964  81.5946 278.5407 13.16595621174895
ONEWEB-0274             
1 48992U 21060AB  25041.54016924  .00000054  00000+0  10897-3 0  9990
2 48992  87.9136 326.7927 0001420  90.9404 269.1890 13.16596450174936
ONEWEB-0275             
1 48993U 21060AC  25041.52910642  .00000061  00000+0  12629-3 0  9992
2 48993  87.9129 326.7596 0001775  83.9262 276.2071 13.16594489174860
ONEWEB-0276             
1 48994U 21060AD  25041.48634194  .00000048  00000+0  92896-4 0  9993
2 48994  87.9131 326.7647 0002017  82.9546 277.1814 13.16592541174878
ONEWEB-0277             
1 48995U 21060AE  25041.49901233  .00000056  00000+0  11340-3 0  9999
2 48995  87.9132 326.7994 0001971  92.0330 268.1027 13.16596903174867
ONEWEB-0278             
1 48996U 21060AF  25041.48950848  .00000066  00000+0  13989-3 0  9997
2 48996  87.9131 326.7609 0001965  72.9251 287.2095 13.16592011174999
ONEWEB-0279             
1 48997U 21060AG  25041.49742415  .00000078  00000+0  17052-3 0  9996
2 48997  87.9131 326.7558 0001773  90.4493 269.6841 13.16592343174927
ONEWEB-0280             
1 48998U 21060AH  25041.51247710 -.00000065  00000+0 -20386-3 0  9990
2 48998  87.9130 326.7576 0002152  80.9096 279.2278 13.16594093174860
ONEWEB-0281             
1 48999U 21060AJ  25041.51800177 -.00000403  00000+0 -10886-2 0  9992
2 48999  87.9128 326.7556 0001636  80.0038 280.1278 13.16593997174930
ONEWEB-0282             
1 49000U 21060AK  25041.32013873  .00000144  00000+0  34180-3 0  9998
2 49000  87.9130 326.8117 0001988  84.1069 276.0288 13.16597078174883
ONEWEB-0283             
1 49001U 21060AL  25041.53700320  .00000071  00000+0  15131-3 0  9996
2 49001  87.9129 326.7727 0001738  87.2158 272.9172 13.16596575174927
ONEWEB-0284             
1 49002U 21060AM  25041.53066478  .00000047  00000+0  88504-4 0  9994
2 49002  87.9122 326.7435 0001928  74.3125 285.8218 13.16596544174907
ONEWEB-0285             
1 49075U 21075A   25041.55928247  .00000178  00000+0  46041-3 0  9997
2 49075  87.8826  88.5414 0001948  96.4340 263.7011 13.12445357171705
ONEWEB-0286             
1 49076U 21075B   25041.68323237 -.00000560  00000+0 -15912-2 0  9999
2 49076  87.8825  88.5113 0001659  92.8846 267.2472 13.12444505171075
ONEWEB-0287             
1 49077U 21075C   25041.55589130  .00000026  00000+0  33445-4 0  9990
2 49077  87.9060 103.8122 0001636  87.6553 272.4766 13.17648290168882
ONEWEB-0288             
1 49078U 21075D   25041.59320980  .00000092  00000+0  22065-3 0  9999
2 49078  87.8821  88.5328 0001922  91.9262 268.2087 13.12443308170708
ONEWEB-0289             
1 49079U 21075E   25041.66052616  .00000022  00000+0  23315-4 0  9999
2 49079  87.9058 103.8215 0002424  92.5545 267.5864 13.17650287170444
ONEWEB-0290             
1 49080U 21075F   25041.56770873  .00000001  00000+0 -31178-4 0  9996
2 49080  87.9059 103.7977 0002639  98.7753 261.3677 13.17650483168874
ONEWEB-0291             
1 49081U 21075G   25041.55251426 -.00000003  00000+0 -41463-4 0  9995
2 49081  87.9052 103.8103 0001971  93.5063 266.6294 13.17650878168865
ONEWEB-0293             
1 49082U 21075H   25041.57783113  .00000005  00000+0 -19920-4 0  9995
2 49082  87.9058 103.8309 0002071  98.8130 261.3236 13.17650193168896
ONEWEB-0294             
1 49083U 21075J   25041.67594297 -.00000171  00000+0 -51147-3 0  9991
2 49083  87.8822  88.5155 0002343  87.6789 272.4608 13.12439177171095
ONEWEB-0295             
1 49084U 21075K   25041.57699357  .00000028  00000+0  40201-4 0  9993
2 49084  87.9059 103.8112 0001838  88.1353 271.9989 13.17648257168856
ONEWEB-0296             
1 49085U 21075L   25041.65647958  .00000433  00000+0  11676-2 0  9995
2 49085  87.8823  88.5252 0002059  78.1979 281.9381 13.12440784171095
ONEWEB-0297             
1 49086U 21075M   25041.68730162 -.00000378  00000+0 -10864-2 0  9997
2 49086  87.8833  88.5434 0001813  96.7955 263.3380 13.12441446171703
ONEWEB-0298             
1 49087U 21075N   25041.73321347  .00000022  00000+0  24466-4 0  9994
2 49087  87.9057 103.7969 0001673  98.1473 261.9848 13.17649991169891
ONEWEB-0299             
1 49088U 21075P   25041.58288312  .00000079  00000+0  17111-3 0  9992
2 49088  87.9052 103.7858 0001671  98.3948 261.7373 13.17650363168863
ONEWEB-0300             
1 49089U 21075Q   25041.52670655 -.00000267  00000+0 -77650-3 0  9997
2 49089  87.8823  88.5434 0001743 108.9502 251.1815 13.12443358170713
ONEWEB-0301             
1 49090U 21075R   25041.66297087  .00000311  00000+0  82799-3 0  9996
2 49090  87.8822  88.5212 0001829 107.4201 252.7127 13.12440099171086
ONEWEB-0302             
1 49091U 21075S   25041.57376055  .00000478  00000+0  12935-2 0  9998
2 49091  87.8822  88.5392 0002188  88.2367 271.9012 13.12445228170066
ONEWEB-0304             
1 49092U 21075T   25041.55758775 -.00001088  00000+0 -28357-2 0  9995
2 49092  87.9061 103.8166 0001817  94.7884 265.3455 13.17641259169813
ONEWEB-0305             
1 49093U 21075U   25041.55082673 -.00000081  00000+0 -24309-3 0  9999
2 49093  87.9056 103.7986 0001560  89.1008 271.0302 13.17649517168862
ONEWEB-0308             
1 49094U 21075V   25041.56725300  .00000396  00000+0  10657-2 0  9999
2 49094  87.8822  88.5370 0001879 100.3864 259.7476 13.12445732171091
ONEWEB-0309             
1 49095U 21075W   25041.55421215  .00000061  00000+0  12504-3 0  9990
2 49095  87.9061 103.8101 0002350  92.9781 267.1620 13.17649106168838
ONEWEB-0310             
1 49096U 21075X   25041.65810470  .00000419  00000+0  11292-2 0  9996
2 49096  87.8832  88.5488 0002025  95.0742 265.0618 13.12440995171716
ONEWEB-0311             
1 49097U 21075Y   25041.71283387 -.00000028  00000+0 -10431-3 0  9998
2 49097  87.9059 103.7797 0001548  91.9638 268.1671 13.17648117169902
ONEWEB-0312             
1 49098U 21075Z   25041.57613753  .00000013  00000+0 -16510-6 0  9997
2 49098  87.9059 103.8379 0001929  87.5142 272.6210 13.17650045168860
ONEWEB-0313             
1 49099U 21075AA  25041.65701499 -.00000012  00000+0 -64784-4 0  9996
2 49099  87.9058 103.8377 0001828  92.4942 267.6399 13.17649089169868
ONEWEB-0314             
1 49100U 21075AB  25041.69934602  .00000173  00000+0  41346-3 0  9991
2 49100  87.9053 103.7655 0001845  85.6684 274.4659 13.17653051169836
ONEWEB-0315             
1 49101U 21075AC  25041.40342322 -.00000930  00000+0 -26201-2 0  9998
2 49101  87.8824  88.5611 0001569  94.1273 266.0035 13.12448546170660
ONEWEB-0316             
1 49102U 21075AD  25041.78330546  .00000096  00000+0  21083-3 0  9990
2 49102  87.9054  73.2043 0001706  90.3343 269.7985 13.18686730173455
ONEWEB-0317             
1 49103U 21075AE  25041.62566677 -.00000173  00000+0 -51660-3 0  9992
2 49103  87.8823  88.5299 0002370 104.5673 255.5718 13.12442389171700
ONEWEB-0318             
1 49104U 21075AF  25041.78014294  .00000083  00000+0  17695-3 0  9991
2 49104  87.9051  73.1922 0001628  88.9155 271.2163 13.18686750173409
ONEWEB-0319             
1 49105U 21075AG  25041.56263861  .00000028  00000+0  40103-4 0  9994
2 49105  87.9061 103.8347 0001507  90.0393 270.0911 13.17650207168866
ONEWEB-0323             
1 49106U 21075AH  25041.53968550 -.00000374  00000+0 -10740-2 0  9997
2 49106  87.8824  88.5332 0001328  78.4548 281.6729 13.12443384170060
ONEWEB-0329             
1 49107U 21075AJ  25041.57107628  .00000023  00000+0  26928-4 0  9999
2 49107  87.9060 103.8374 0001804  94.0757 266.0580 13.17650568168840
ONEWEB-0330             
1 49108U 21075AK  25041.57276223 -.00000005  00000+0 -46122-4 0  9998
2 49108  87.9059 103.8389 0001998  93.4588 266.6772 13.17647720168883
ONEWEB-0292             
1 49186U 21083A   25041.74262574 -.00000024  00000+0 -99573-4 0  9995
2 49186  87.8881  57.9662 0001651  90.0233 270.1086 13.13470497167709
ONEWEB-0303             
1 49187U 21083B   25041.77698091  .00000079  00000+0  16762-3 0  9992
2 49187  87.9053  73.1947 0001685  91.7875 268.3450 13.18686601166495
ONEWEB-0306             
1 49188U 21083C   25041.53985770  .00000088  00000+0  19115-3 0  9995
2 49188  87.9050  73.2274 0002067  93.7462 266.3906 13.18687601165221
ONEWEB-0307             
1 49189U 21083D   25041.58471581  .00000085  00000+0  19818-3 0  9998
2 49189  87.8884  58.0004 0002203  89.3513 270.7869 13.13467598166390
ONEWEB-0320             
1 49190U 21083E   25041.54619516  .00000012  00000+0 -24131-5 0  9995
2 49190  87.9053  73.2537 0001898  92.8362 267.2988 13.18686236165187
ONEWEB-0321             
1 49191U 21083F   25041.46360277  .00000079  00000+0  16144-3 0  9999
2 49191  87.9284  12.2736 0001998  87.7998 272.3364 13.20770311171922
ONEWEB-0322             
1 49192U 21083G   25041.58075607  .00000170  00000+0  42966-3 0  9996
2 49192  87.8884  57.9906 0002258  96.7434 263.3952 13.13470401166384
ONEWEB-0324             
1 49193U 21083H   25041.53195591  .00000036  00000+0  59395-4 0  9993
2 49193  87.9052  73.2365 0001886  86.0689 274.0659 13.18686703165205
ONEWEB-0325             
1 49194U 21083J   25041.61259401  .00000011  00000+0 -36430-5 0  9994
2 49194  87.9054  73.2370 0001973  95.6955 264.4402 13.18686193166509
ONEWEB-0326             
1 49195U 21083K   25041.77856812  .00000101  00000+0  22360-3 0  9995
2 49195  87.9051  73.1969 0001513  88.3199 271.8106 13.18686291166512
ONEWEB-0327             
1 49196U 21083L   25041.77777092  .00000086  00000+0  18492-3 0  9991
2 49196  87.9052  73.2239 0001519  93.5831 266.5475 13.18686814166535
